[{"OBJECT_NAME":"COSMOS 2251 DEB","OBJECT_ID":"1993-036ALG","EPOCH":"2026-03-02T11:28:02.472096","MEAN_MOTION":14.30041703,"ECCENTRICITY":0.00827897,"INCLINATION":74.0357,"RA_OF_ASC_NODE":123.7856,"ARG_OF_PERICENTER":141.5288,"MEAN_ANOMALY":219.1805,"EPHEMERIS_TYPE":0,"CLASSIFICATION_TYPE":"U","NORAD_CAT_ID":35462,"ELEMENT_SET_NO":999,"REV_AT_EPOCH":67520,"BSTAR":0.0013139411,"MEAN_MOTION_DOT":3.497e-5,"MEAN_MOTION_DDOT":0},{"OBJECT_NAME":"COSMOS 2251 DEB","OBJECT_ID":"1993-036ALK","EPOCH":"2026-03-03T22:26:08.134368","MEAN_MOTION":14.44599759,"ECCENTRICITY":0.0064329,"INCLINATION":73.9972,"RA_OF_ASC_NODE":45.5519,"ARG_OF_PERICENTER":189.7492,"MEAN_ANOMALY":170.2423,"EPHEMERIS_TYPE":0,"CLASSIFICATION_TYPE":"U","NORAD_CAT_ID":35465,"ELEMENT_SET_NO":999,"REV_AT_EPOCH":88414,"BSTAR":0.00049755,"MEAN_MOTION_DOT":1.738e-5,"MEAN_MOTION_DDOT":0},{"OBJECT_NAME":"COSMOS 2251 DEB","OBJECT_ID":"1993-036ALP","EPOCH":"2026-03-07T02:44:04.617312","MEAN_MOTION":14.49905492,"ECCENTRICITY":0.00769935,"INCLINATION":74.0148,"RA_OF_ASC_NODE":225.2604,"ARG_OF_PERICENTER":358.1768,"MEAN_ANOMALY":1.9099,"EPHEMERIS_TYPE":0,"CLASSIFICATION_TYPE":"U","NORAD_CAT_ID":35469,"ELEMENT_SET_NO":999,"REV_AT_EPOCH":89334,"BSTAR":0.00011103146,"MEAN_MOTION_DOT":4.16e-6,"MEAN_MOTION_DDOT":0},{"OBJECT_NAME":"COSMOS 2251 DEB","OBJECT_ID":"1993-036ALV","EPOCH":"2026-03-07T12:01:49.937088","MEAN_MOTION":14.71993106,"ECCENTRICITY":0.00165126,"INCLINATION":74.0242,"RA_OF_ASC_NODE":0.9154,"ARG_OF_PERICENTER":54.3018,"MEAN_ANOMALY":305.9688,"EPHEMERIS_TYPE":0,"CLASSIFICATION_TYPE":"U","NORAD_CAT_ID":35475,"ELEMENT_SET_NO":999,"REV_AT_EPOCH":66863,"BSTAR":0.002985744,"MEAN_MOTION_DOT":0.00018802,"MEAN_MOTION_DDOT":0},{"OBJECT_NAME":"COSMOS 2251 DEB","OBJECT_ID":"1993-036ALW","EPOCH":"2026-03-07T12:34:27.360192","MEAN_MOTION":14.78284386,"ECCENTRICITY":0.00163628,"INCLINATION":73.975,"RA_OF_ASC_NODE":254.1007,"ARG_OF_PERICENTER":222.7677,"MEAN_ANOMALY":168.7264,"EPHEMERIS_TYPE":0,"CLASSIFICATION_TYPE":"U","NORAD_CAT_ID":35476,"ELEMENT_SET_NO":999,"REV_AT_EPOCH":89139,"BSTAR":0.0026046722,"MEAN_MOTION_DOT":0.00018985,"MEAN_MOTION_DDOT":0},{"OBJECT_NAME":"COSMOS 2251 DEB","OBJECT_ID":"1993-036ALX","EPOCH":"2026-03-02T15:12:44.322048","MEAN_MOTION":13.84237208,"ECCENTRICITY":0.0278732,"INCLINATION":73.9019,"RA_OF_ASC_NODE":42.8201,"ARG_OF_PERICENTER":32.3618,"MEAN_ANOMALY":329.4263,"EPHEMERIS_TYPE":0,"CLASSIFICATION_TYPE":"U","NORAD_CAT_ID":35580,"ELEMENT_SET_NO":999,"REV_AT_EPOCH":63362,"BSTAR":0.0021886,"MEAN_MOTION_DOT":3.278e-5,"MEAN_MOTION_DDOT":0},{"OBJECT_NAME":"COSMOS 2251 DEB","OBJECT_ID":"1993-036AMA","EPOCH":"2026-03-03T17:15:21.252672","MEAN_MOTION":13.55556277,"ECCENTRICITY":0.03811351,"INCLINATION":73.9155,"RA_OF_ASC_NODE":80.7639,"ARG_OF_PERICENTER":90.1045,"MEAN_ANOMALY":274.3731,"EPHEMERIS_TYPE":0,"CLASSIFICATION_TYPE":"U","NORAD_CAT_ID":35583,"ELEMENT_SET_NO":999,"REV_AT_EPOCH":83509,"BSTAR":0.00098746383,"MEAN_MOTION_DOT":1.075e-5,"MEAN_MOTION_DDOT":0},{"OBJECT_NAME":"COSMOS 2251 DEB","OBJECT_ID":"1993-036AMC","EPOCH":"2026-03-07T08:40:43.913568","MEAN_MOTION":13.75581752,"ECCENTRICITY":0.03069682,"INCLINATION":73.9714,"RA_OF_ASC_NODE":207.0986,"ARG_OF_PERICENTER":101.9344,"MEAN_ANOMALY":291.6758,"EPHEMERIS_TYPE":0,"CLASSIFICATION_TYPE":"U","NORAD_CAT_ID":35585,"ELEMENT_SET_NO":999,"REV_AT_EPOCH":65227,"BSTAR":0.002667038,"MEAN_MOTION_DOT":3.608e-5,"MEAN_MOTION_DDOT":0},{"OBJECT_NAME":"COSMOS 2251 DEB","OBJECT_ID":"1993-036AMD","EPOCH":"2026-03-02T13:25:37.759584","MEAN_MOTION":13.52179228,"ECCENTRICITY":0.0403278,"INCLINATION":74.0205,"RA_OF_ASC_NODE":174.6034,"ARG_OF_PERICENTER":32.7225,"MEAN_ANOMALY":344.3851,"EPHEMERIS_TYPE":0,"CLASSIFICATION_TYPE":"U","NORAD_CAT_ID":35586,"ELEMENT_SET_NO":999,"REV_AT_EPOCH":61461,"BSTAR":0.00042485,"MEAN_MOTION_DOT":4.47e-6,"MEAN_MOTION_DDOT":0},{"OBJECT_NAME":"COSMOS 2251 DEB","OBJECT_ID":"1993-036AME","EPOCH":"2026-03-06T12:02:05.632512","MEAN_MOTION":14.71813297,"ECCENTRICITY":0.00998578,"INCLINATION":74.0021,"RA_OF_ASC_NODE":255.2483,"ARG_OF_PERICENTER":61.2182,"MEAN_ANOMALY":299.8974,"EPHEMERIS_TYPE":0,"CLASSIFICATION_TYPE":"U","NORAD_CAT_ID":35587,"ELEMENT_SET_NO":999,"REV_AT_EPOCH":67578,"BSTAR":0.00028076366,"MEAN_MOTION_DOT":1.863e-5,"MEAN_MOTION_DDOT":0},{"OBJECT_NAME":"COSMOS 2251 DEB","OBJECT_ID":"1993-036AML","EPOCH":"2026-03-07T11:36:37.821312","MEAN_MOTION":14.26094626,"ECCENTRICITY":0.00999824,"INCLINATION":74.0857,"RA_OF_ASC_NODE":135.8671,"ARG_OF_PERICENTER":122.2276,"MEAN_ANOMALY":238.8613,"EPHEMERIS_TYPE":0,"CLASSIFICATION_TYPE":"U","NORAD_CAT_ID":35593,"ELEMENT_SET_NO":999,"REV_AT_EPOCH":86273,"BSTAR":0.00094343676,"MEAN_MOTION_DOT":2.353e-5,"MEAN_MOTION_DDOT":0},{"OBJECT_NAME":"COSMOS 2251 DEB","OBJECT_ID":"1993-036AMM","EPOCH":"2026-03-03T01:54:39.373632","MEAN_MOTION":14.90567528,"ECCENTRICITY":0.00270798,"INCLINATION":73.8068,"RA_OF_ASC_NODE":303.7229,"ARG_OF_PERICENTER":37.1087,"MEAN_ANOMALY":323.1959,"EPHEMERIS_TYPE":0,"CLASSIFICATION_TYPE":"U","NORAD_CAT_ID":35594,"ELEMENT_SET_NO":999,"REV_AT_EPOCH":89381,"BSTAR":0.0015008429,"MEAN_MOTION_DOT":0.00014776,"MEAN_MOTION_DDOT":0},{"OBJECT_NAME":"COSMOS 2251 DEB","OBJECT_ID":"1993-036AMV","EPOCH":"2026-03-06T19:23:55.543200","MEAN_MOTION":15.39369041,"ECCENTRICITY":0.00781877,"INCLINATION":73.9962,"RA_OF_ASC_NODE":0.8137,"ARG_OF_PERICENTER":43.2048,"MEAN_ANOMALY":344.0648,"EPHEMERIS_TYPE":0,"CLASSIFICATION_TYPE":"U","NORAD_CAT_ID":35602,"ELEMENT_SET_NO":999,"REV_AT_EPOCH":91383,"BSTAR":0.00075995302,"MEAN_MOTION_DOT":0.00033164,"MEAN_MOTION_DDOT":0},{"OBJECT_NAME":"COSMOS 2251 DEB","OBJECT_ID":"1993-036AMZ","EPOCH":"2026-03-06T21:41:19.330080","MEAN_MOTION":13.41330963,"ECCENTRICITY":0.04553504,"INCLINATION":73.8059,"RA_OF_ASC_NODE":236.6434,"ARG_OF_PERICENTER":68.8137,"MEAN_ANOMALY":296.0979,"EPHEMERIS_TYPE":0,"CLASSIFICATION_TYPE":"U","NORAD_CAT_ID":35606,"ELEMENT_SET_NO":999,"REV_AT_EPOCH":62168,"BSTAR":0.00062533035,"MEAN_MOTION_DOT":6.22e-6,"MEAN_MOTION_DDOT":0},{"OBJECT_NAME":"COSMOS 2251 DEB","OBJECT_ID":"1993-036ANE","EPOCH":"2026-03-06T06:43:44.596128","MEAN_MOTION":14.75630739,"ECCENTRICITY":0.00166768,"INCLINATION":74.0213,"RA_OF_ASC_NODE":16.0702,"ARG_OF_PERICENTER":71.7035,"MEAN_ANOMALY":288.5951,"EPHEMERIS_TYPE":0,"CLASSIFICATION_TYPE":"U","NORAD_CAT_ID":35611,"ELEMENT_SET_NO":999,"REV_AT_EPOCH":88521,"BSTAR":0.0029269535,"MEAN_MOTION_DOT":0.00020055,"MEAN_MOTION_DDOT":0},{"OBJECT_NAME":"COSMOS 2251 DEB","OBJECT_ID":"1993-036ANH","EPOCH":"2026-03-07T12:42:40.412160","MEAN_MOTION":14.67932325,"ECCENTRICITY":0.00756896,"INCLINATION":73.9584,"RA_OF_ASC_NODE":162.934,"ARG_OF_PERICENTER":354.2555,"MEAN_ANOMALY":5.7737,"EPHEMERIS_TYPE":0,"CLASSIFICATION_TYPE":"U","NORAD_CAT_ID":35614,"ELEMENT_SET_NO":999,"REV_AT_EPOCH":88973,"BSTAR":0.0010056236,"MEAN_MOTION_DOT":5.981e-5,"MEAN_MOTION_DDOT":0}]
