COSMOS 2251 DEB         
1 35462U 93036ALG 26061.47780639  .00003497  00000+0  13139-2 0  9991
2 35462  74.0357 123.7856 0082789 141.5288 219.1805 14.30041703675202
COSMOS 2251 DEB         
1 35465U 93036ALK 26062.93481637  .00001738  00000+0  49755-3 0  9992
2 35465  73.9972  45.5519 0064329 189.7492 170.2423 14.44599759884146
COSMOS 2251 DEB         
1 35469U 93036ALP 26066.11394233  .00000416  00000+0  11103-3 0  9993
2 35469  74.0148 225.2604 0076993 358.1768   1.9099 14.49905492893348
COSMOS 2251 DEB         
1 35475U 93036ALV 26066.50127242  .00018802  00000+0  29857-2 0  9999
2 35475  74.0242   0.9154 0016512  54.3018 305.9688 14.71993106668639
COSMOS 2251 DEB         
1 35476U 93036ALW 26066.52392778  .00018985  00000+0  26047-2 0  9990
2 35476  73.9750 254.1007 0016362 222.7677 168.7264 14.78284386891393
COSMOS 2251 DEB         
1 35580U 93036ALX 26061.63384632  .00003278  00000+0  21886-2 0  9998
2 35580  73.9019  42.8201 0278732  32.3618 329.4263 13.84237208633628
COSMOS 2251 DEB         
1 35583U 93036AMA 26062.71899598  .00001075  00000+0  98746-3 0  9996
2 35583  73.9155  80.7639 0381135  90.1045 274.3731 13.55556277835097
COSMOS 2251 DEB         
1 35585U 93036AMC 26066.36161937  .00003608  00000+0  26670-2 0  9992
2 35585  73.9714 207.0986 0306968 101.9344 291.6758 13.75581752652279
COSMOS 2251 DEB         
1 35586U 93036AMD 26061.55946481  .00000447  00000+0  42485-3 0  9995
2 35586  74.0205 174.6034 0403278  32.7225 344.3851 13.52179228614613
COSMOS 2251 DEB         
1 35587U 93036AME 26065.50145408  .00001863  00000+0  28076-3 0  9998
2 35587  74.0021 255.2483 0099857  61.2182 299.8974 14.71813297675785
COSMOS 2251 DEB         
1 35593U 93036AML 26066.48377108  .00002353  00000+0  94344-3 0  9993
2 35593  74.0857 135.8671 0099982 122.2276 238.8613 14.26094626862735
COSMOS 2251 DEB         
1 35594U 93036AMM 26062.07962238  .00014776  00000+0  15008-2 0  9990
2 35594  73.8068 303.7229 0027079  37.1087 323.1959 14.90567528893815
COSMOS 2251 DEB         
1 35602U 93036AMV 26065.80828175  .00033164  00000+0  75995-3 0  9999
2 35602  73.9962   0.8137 0078187  43.2048 344.0648 15.39369041913839
COSMOS 2251 DEB         
1 35606U 93036AMZ 26065.90369595  .00000622  00000+0  62533-3 0  9997
2 35606  73.8059 236.6434 0455350  68.8137 296.0979 13.41330963621685
COSMOS 2251 DEB         
1 35611U 93036ANE 26065.28037727  .00020055  00000+0  29270-2 0  9995
2 35611  74.0213  16.0702 0016676  71.7035 288.5951 14.75630739885217
COSMOS 2251 DEB         
1 35614U 93036ANH 26066.52963440  .00005981  00000+0  10056-2 0  9999
2 35614  73.9584 162.9340 0075689 354.2555   5.7737 14.67932325889732
